[{"OBJECT_NAME":"YAOGAN-32 A","OBJECT_ID":"2018-077A","EPOCH":"2026-03-09T23:02:56.675616","MEAN_MOTION":14.63036121,"ECCENTRICITY":0.00017694,"INCLINATION":98.1595,"RA_OF_ASC_NODE":98.6551,"ARG_OF_PERICENTER":95.91,"MEAN_ANOMALY":264.2303,"EPHEMERIS_TYPE":0,"CLASSIFICATION_TYPE":"U","NORAD_CAT_ID":43642,"ELEMENT_SET_NO":999,"REV_AT_EPOCH":39533,"BSTAR":0.00019081707,"MEAN_MOTION_DOT":9.32e-6,"MEAN_MOTION_DDOT":0},{"OBJECT_NAME":"DELTA 1 DEB","OBJECT_ID":"1972-058JY","EPOCH":"2026-02-23T05:06:31.375296","MEAN_MOTION":14.55710882,"ECCENTRICITY":0.0036402,"INCLINATION":97.8563,"RA_OF_ASC_NODE":216.2875,"ARG_OF_PERICENTER":176.2467,"MEAN_ANOMALY":183.9012,"EPHEMERIS_TYPE":0,"CLASSIFICATION_TYPE":"U","NORAD_CAT_ID":42565,"ELEMENT_SET_NO":999,"REV_AT_EPOCH":64988,"BSTAR":0.0001866,"MEAN_MOTION_DOT":7.8e-6,"MEAN_MOTION_DDOT":0}]
